*******************************************************************************
Ephemeris / WWW_USER Tue Mar 27 20:02:27 2018 Pasadena, USA      / Horizons    
*******************************************************************************
Target body name: Pluto (999)                     {source: plu055l_merged}
Center body name: Solar System Barycenter (0)     {source: DE431mx}
Center-site name: BODY CENTER
*******************************************************************************
Start time      : A.D. 2000-Jan-01 00:00:00.0000 TDB
Stop  time      : A.D. 2010-Jan-01 00:00:00.0000 TDB
Step-size       : 7200 minutes
*******************************************************************************
Center geodetic : 0.00000000,0.00000000,0.0000000 {E-lon(deg),Lat(deg),Alt(km)}
Center cylindric: 0.00000000,0.00000000,0.0000000 {E-lon(deg),Dxy(km),Dz(km)}
Center radii    : (undefined)                                                  
Output units    : AU-D                                                         
Output type     : GEOMETRIC cartesian states
Output format   : 2 (position and velocity)
Reference frame : ICRF/J2000.0                                                 
Coordinate systm: Ecliptic and Mean Equinox of Reference Epoch                 
*******************************************************************************
JDTDB
   X     Y     Z
   VX    VY    VZ
*******************************************************************************
$$SOE
2455114.500000000 = A.D. 2009-Oct-10 00:00:00.0000 TDB 
   1.358996743025598E+00 -3.154670657700051E+01  2.982600449131172E+00
   3.202867752518626E-03 -4.575465759899941E-04 -8.730782391410757E-04
2455119.500000000 = A.D. 2009-Oct-15 00:00:00.0000 TDB 
   1.374958770922465E+00 -3.154905614904396E+01  2.978220637923796E+00
   3.191039672665584E-03 -4.612879692333497E-04 -8.610551436570488E-04
2455124.500000000 = A.D. 2009-Oct-20 00:00:00.0000 TDB 
   1.390936677450234E+00 -3.155138285007797E+01  2.973836823475207E+00
   3.183130487490598E-03 -4.734408498073247E-04 -8.693428533107698E-04
2455129.500000000 = A.D. 2009-Oct-25 00:00:00.0000 TDB 
   1.406913675921828E+00 -3.155369068150731E+01  2.969471847269028E+00
   3.191618094656398E-03 -4.723413173149756E-04 -8.849708064636089E-04
2455134.500000000 = A.D. 2009-Oct-30 00:00:00.0000 TDB 
   1.422873918236353E+00 -3.155600200835173E+01  2.965117485894270E+00
   3.202896936307962E-03 -4.574156835502184E-04 -8.833068051192131E-04
2455139.500000000 = A.D. 2009-Nov-04 00:00:00.0000 TDB 
   1.438827685055058E+00 -3.155832199418662E+01  2.960747543300907E+00
   3.198927781622036E-03 -4.500687675362247E-04 -8.672134906383854E-04
2455144.500000000 = A.D. 2009-Nov-09 00:00:00.0000 TDB 
   1.454795037086949E+00 -3.156063038995666E+01  2.956359503645638E+00
   3.185912352923542E-03 -4.596651076724592E-04 -8.625070760458426E-04
2455149.500000000 = A.D. 2009-Nov-14 00:00:00.0000 TDB 
   1.470773895777584E+00 -3.156291373949621E+01  2.951978551016334E+00
   3.184452757351325E-03 -4.686085608829211E-04 -8.768953857326270E-04
2455154.500000000 = A.D. 2009-Nov-19 00:00:00.0000 TDB 
   1.486743342595583E+00 -3.156518679467066E+01  2.947617499820806E+00
   3.196756709877302E-03 -4.603495614480993E-04 -8.877042793987733E-04
2455159.500000000 = A.D. 2009-Nov-24 00:00:00.0000 TDB 
   1.502696891201283E+00 -3.156746904031073E+01  2.943256425997199E+00
   3.203149218466705E-03 -4.456982323103719E-04 -8.779666692384650E-04
2455164.500000000 = A.D. 2009-Nov-29 00:00:00.0000 TDB 
   1.518652789068656E+00 -3.156975371745552E+01  2.938874355102377E+00
   3.193350471138556E-03 -4.456292322619250E-04 -8.633795544318672E-04
2455169.500000000 = A.D. 2009-Dec-04 00:00:00.0000 TDB 
   1.534625000696431E+00 -3.157201856306000E+01  2.934482623859054E+00
   3.182834268771154E-03 -4.579316390316045E-04 -8.673687234289964E-04
2455174.500000000 = A.D. 2009-Dec-09 00:00:00.0000 TDB 
   1.550600977728249E+00 -3.157426123191314E+01  2.930106857853427E+00
   3.188218563465186E-03 -4.607051445985659E-04 -8.838003619917968E-04
2455179.500000000 = A.D. 2009-Dec-14 00:00:00.0000 TDB 
   1.566561623813838E+00 -3.157650302498723E+01  2.925746200244263E+00
   3.200820538318180E-03 -4.472201633521739E-04 -8.867567027613197E-04
2455184.500000000 = A.D. 2009-Dec-19 00:00:00.0000 TDB 
   1.582511655304959E+00 -3.157875500950952E+01  2.921374691883642E+00
   3.200487757290933E-03 -4.365948126036399E-04 -8.717527088650152E-04
2455189.500000000 = A.D. 2009-Dec-24 00:00:00.0000 TDB 
   1.598472096094127E+00 -3.158100042534284E+01  2.916982547015050E+00
   3.187627172074817E-03 -4.434096205444491E-04 -8.628640440673968E-04
2455194.500000000 = A.D. 2009-Dec-29 00:00:00.0000 TDB 
   1.614446833643688E+00 -3.158322133455211E+01  2.912591734139327E+00
   3.182582950844189E-03 -4.544998880276598E-04 -8.744507109750614E-04
